Kohoutek,e,4.05220,68.51762,190.30165,2.2506619,0.29190309,0.1263212,83.66731,11/5/1990,1950.0,13.10,0.25
Kohsai,e,7.11625,144.17107,300.35602,2.2152199,0.29893641,0.1095320,109.29484,11/5/1990,1950.0,14.20,0.25
Kokkola,e,5.34972,60.14862,30.48037,2.3680250,0.27047346,0.0722745,65.97304,11/5/1990,1950.0,12.54,0.25
Kolga,e,11.50761,159.08592,225.32312,2.8955134,0.20003947,0.0895415,247.67519,11/5/1990,1950.0,8.98,0.15
Kollaa,e,7.77229,65.06845,70.29029,2.3623095,0.27145564,0.0758144,87.89942,11/5/1990,1950.0,12.20,0.25
Kollontai,e,5.79826,308.76276,17.51260,2.2143643,0.29910967,0.1598803,134.45017,11/5/1990,1950.0,12.65,0.25
Komaki,e,6.80062,289.61416,289.90370,3.0336004,0.18653765,0.1318401,181.35654,11/5/1990,1950.0,11.80,0.25
Komarov,e,7.00808,272.58572,11.40184,2.7838358,0.21219671,0.1917280,72.60557,11/5/1990,1950.0,11.50,0.25
Komensky,e,10.47656,23.52201,261.47242,3.0179139,0.18799392,0.0694377,48.74037,11/5/1990,1950.0,11.80,0.25
Komppa,e,12.43522,332.83326,86.04670,2.6969114,0.22253794,0.0976275,40.13905,11/5/1990,1950.0,11.30,0.25
Komsomolia,e,8.88778,157.29921,237.20718,3.1963331,0.17247495,0.2133882,84.18365,11/5/1990,1950.0,10.80,0.25
Kondratyuk,e,4.14550,185.47699,144.67438,2.4382097,0.25887939,0.2263192,178.09372,11/5/1990,1950.0,13.54,0.25
Konig,e,8.60699,196.89022,9.55320,2.5715187,0.23901191,0.1023697,235.57387,11/5/1990,1950.0,12.10,0.25
Konkolya,e,2.28444,89.15630,268.01989,3.1138414,0.17937394,0.1883309,328.03334,11/5/1990,1950.0,11.85,0.15
Konoshenkova,e,9.89481,69.94000,21.28638,3.2141056,0.17104637,0.1395626,30.60339,11/5/1990,1950.0,11.20,0.25
Konstantin,e,4.77465,193.36109,212.30966,3.1289126,0.17807949,0.0999154,270.14756,11/5/1990,1950.0,11.70,0.25
Konstitutsiya,e,20.66729,15.12005,207.98901,3.2117165,0.17123726,0.1025841,152.83174,11/5/1990,1950.0,10.10,0.25
Kopal,e,1.32436,206.56211,146.13695,2.9085388,0.19869722,0.1481522,59.57702,11/5/1990,1950.0,12.70,0.25
Kopff,e,7.48251,16.48421,314.25238,2.2356942,0.29483938,0.2128827,97.90706,11/5/1990,1950.0,12.50,0.25
Koranna,e,14.47287,247.96073,343.35107,2.6603195,0.22714510,0.1314263,308.75620,11/5/1990,1950.0,11.39,0.15
Korczak,e,2.51329,112.85645,267.70354,3.1396405,0.17716756,0.1905155,147.83856,11/5/1990,1950.0,11.60,0.25
Kordula,e,6.22305,69.03078,268.98908,3.3777363,0.15876891,0.1694024,128.38752,11/5/1990,1950.0,9.33,0.15
Kornephoros,f,16:30:13,21:29,2.78,2000
Korolev,e,3.07861,190.56717,348.65235,2.2479383,0.29243375,0.0846242,300.92791,11/5/1990,1950.0,12.70,0.25
Koronis,e,0.99987,278.12086,142.68820,2.8696729,0.20274749,0.0518907,267.83043,11/5/1990,1950.0,9.49,0.25
Korsunia,e,2.54461,46.14275,197.74018,2.4470062,0.25748472,0.1408941,157.08898,11/5/1990,1950.0,13.58,0.25
Koskenniemi,e,5.66627,331.22258,91.10748,2.3740499,0.26944449,0.1174054,199.97100,11/5/1990,1950.0,12.10,0.25
Kosmodemyanskay,e,4.75836,25.85529,37.03894,2.4499977,0.25701328,0.1633382,116.49556,11/5/1990,1950.0,12.64,0.25
Kostinsky,e,7.62878,256.61632,165.40747,3.9754596,0.12434349,0.2228436,268.71655,11/5/1990,1950.0,10.34,0.15
Kotelnikov,e,1.56301,355.53957,47.36098,2.8612037,0.20364835,0.0751736,81.42485,11/5/1990,1950.0,12.40,0.25
Kotka,e,8.80803,339.39536,104.25192,2.7486045,0.21628963,0.1931949,268.37297,11/5/1990,1950.0,11.80,0.25
Kotogahama,e,9.34349,321.21298,321.87553,3.0127973,0.18847303,0.0796835,281.44415,11/5/1990,1950.0,11.70,0.25
Koussevitzky,e,11.51662,156.37755,192.80142,3.0211829,0.18768888,0.1266243,210.23011,11/5/1990,1950.0,11.30,0.25
Kovacia,e,5.97901,46.45129,73.93175,3.0628371,0.18387311,0.1308685,284.65005,11/5/1990,1950.0,11.00,0.25
Kovalevskaya,e,7.72543,342.87965,250.23785,3.2038403,0.17186909,0.1083017,151.93433,11/5/1990,1950.0,10.84,0.15
Koyama,e,14.63660,138.78965,139.20660,2.5648459,0.23994525,0.0451565,105.13869,11/5/1990,1950.0,12.60,0.25
Kozai,e,46.64785,142.91557,290.30280,1.8407206,0.39465924,0.2006869,305.51007,11/5/1990,1950.0,14.70,0.25
Kozyrev,e,4.86643,274.86568,89.76518,2.3052791,0.28159103,0.2282834,200.01104,11/5/1990,1950.0,13.11,0.25
Krat,e,22.77504,23.91734,311.65083,3.2190733,0.17065058,0.0900702,114.29244,11/5/1990,1950.0,9.90,0.25
Kresak,e,10.75719,50.24834,102.48553,3.0530865,0.18475466,0.0113710,23.58403,11/5/1990,1950.0,11.10,0.25
Kressida,e,3.87269,108.01666,319.81082,2.2819453,0.28592111,0.1848625,321.27377,11/5/1990,1950.0,11.43,0.25
Kressmannia,e,4.26274,324.69886,346.95952,2.1925004,0.30359496,0.2024086,343.20712,11/5/1990,1950.0,11.60,0.25
Kreusa,e,11.50289,84.54045,69.22388,3.1496089,0.17632713,0.1780153,347.86686,11/5/1990,1950.0,7.83,0.15
Kriemhild,e,11.32255,206.79501,278.30093,2.8626122,0.20349807,0.1209220,239.34851,11/5/1990,1950.0,9.61,0.15
Krinov,e,4.37985,118.59264,148.84985,2.2590474,0.29027930,0.1501907,5.48278,11/5/1990,1950.0,13.07,0.25
Krisbarons,e,3.60118,347.23163,65.01840,2.2265805,0.29665144,0.1031821,304.87208,11/5/1990,1950.0,13.00,0.25
Kristensen,e,3.55894,168.32784,359.27907,2.2430892,0.29338255,0.0646899,2.12845,11/5/1990,1950.0,12.80,0.25
Kristina,e,6.00539,333.88155,45.92195,2.3662713,0.27077419,0.1302682,274.29816,11/5/1990,1950.0,13.50,0.25
Kron,e,14.02906,158.22198,53.69932,2.6419692,0.22951573,0.1144489,131.07781,11/5/1990,1950.0,12.51,0.50
Kronstadt,e,8.78142,146.38896,209.14175,2.5398732,0.24349274,0.2609087,82.82773,11/5/1990,1950.0,13.05,0.15
Kuchiro,e,9.07389,18.54686,303.60283,2.8085695,0.20939982,0.1532576,296.95708,11/5/1990,1950.0,12.10,0.25
Kuiper,e,9.46271,176.47019,272.91372,3.1025541,0.18035369,0.0233928,104.43075,11/5/1990,1950.0,11.00,0.25
Kukarkin,e,14.86875,278.18732,69.14202,2.9332982,0.19618678,0.3121917,206.42528,11/5/1990,1950.0,12.10,0.25
Kukkamaki,e,3.27625,350.89022,123.47126,2.4816389,0.25211355,0.0399847,124.57267,11/5/1990,1950.0,12.16,0.25
Kulik,e,7.47510,330.22897,76.17667,2.4445718,0.25786944,0.2180423,23.39303,11/5/1990,1950.0,13.10,0.25
Kulikov,e,1.85303,174.93773,249.05116,2.8764096,0.20203563,0.0688450,171.34015,11/5/1990,1950.0,12.20,0.25
Kulikovskij,e,5.85774,306.56470,345.83453,2.5400016,0.24347428,0.2316825,120.51523,11/5/1990,1950.0,13.28,0.15
Kumin,e,14.06068,161.42267,315.55776,2.5901117,0.23644293,0.1248370,264.17822,11/5/1990,1950.0,12.90,0.25
Kundry,e,5.39061,71.96601,354.09778,2.2308943,0.29579142,0.1097417,290.81216,11/5/1990,1950.0,12.41,0.25
Kunigunde,e,2.36901,61.79889,256.97419,3.1313179,0.17787435,0.1758768,243.18034,11/5/1990,1950.0,10.08,0.25
Kunikov,e,3.57120,106.07108,263.59480,2.1789026,0.30644133,0.1408700,334.68851,11/5/1990,1950.0,14.14,0.25
Kuopio,e,12.35772,316.51772,175.60165,2.6261869,0.23158777,0.1020283,47.65323,11/5/1990,1950.0,10.64,0.15
Kurchatov,e,14.77615,232.06743,113.53785,3.1052287,0.18012073,0.1190834,322.08911,11/5/1990,1950.0,10.79,0.15
Kurchenko,e,17.48330,132.79664,218.01615,2.7726042,0.21348741,0.1164804,113.44851,11/5/1990,1950.0,11.58,0.15
Kursk,e,5.03777,203.65529,231.83966,2.2426398,0.29347073,0.1366495,68.76085,11/5/1990,1950.0,13.57,0.25
Kustaanheimo,e,3.20207,327.70921,214.91831,2.3896362,0.26681263,0.1350044,27.67120,11/5/1990,1950.0,12.00,0.25
Kutaissi,e,1.61159,192.82232,116.42563,2.8600943,0.20376686,0.0628693,319.05485,11/5/1990,1950.0,10.64,0.25
Kutuzov,e,0.83910,21.01738,259.48459,3.1750353,0.17421328,0.1554955,150.04353,11/5/1990,1950.0,11.16,0.15
Kuzbass,e,2.50047,94.59802,171.71475,3.1182908,0.17899016,0.1363549,336.43007,11/5/1990,1950.0,11.48,0.15
Kuznetsov,e,3.41228,246.79950,159.00704,2.2780745,0.28665016,0.0816283,116.67268,11/5/1990,1950.0,12.69,0.25
Kvistaberg,e,3.56022,167.90589,303.75130,2.4199168,0.26182037,0.0888449,213.21994,11/5/1990,1950.0,13.40,0.25
Kyogoku,e,2.26511,153.53122,219.24846,2.8674465,0.20298367,0.0388921,326.47100,11/5/1990,1950.0,11.90,0.25
Kyoto,e,11.08020,68.32085,348.63554,2.7606913,0.21487076,0.1975831,71.24156,11/5/1990,1950.0,11.20,0.25
Kypria,e,10.78373,170.40583,118.60830,3.0096060,0.18877288,0.0820288,300.31116,11/5/1990,1950.0,10.24,0.25
Kythera,e,1.75357,224.95208,148.28129,3.4377045,0.15463267,0.1078309,109.46968,11/5/1990,1950.0,8.87,0.15
La Paz,e,8.93221,20.21618,23.27893,3.0943303,0.18107316,0.0801411,84.93144,11/5/1990,1950.0,10.56,0.15
La Plata,e,2.43285,29.74495,141.95210,2.8886499,0.20075285,0.0283039,242.71739,11/5/1990,1950.0,10.95,0.34
La Silla,e,13.25323,136.99507,214.12406,2.5362887,0.24400912,0.1182604,268.16065,11/5/1990,1950.0,13.48,0.15
Lacadiera,e,5.65217,234.62088,30.71093,2.2513475,0.29176976,0.0959853,102.71306,11/5/1990,1950.0,9.78,0.17
Lachesis,e,6.96267,340.98631,237.27273,3.1131995,0.17942942,0.0648136,167.23403,11/5/1990,1950.0,7.73,0.17
Lacrimosa,e,1.74807,4.20329,112.63392,2.8926600,0.20033553,0.0107233,122.36062,11/5/1990,1950.0,9.05,0.25
Lacroute,e,1.66538,24.42243,345.54490,3.1119686,0.17953589,0.1873181,116.39407,11/5/1990,1950.0,12.00,0.25
Lada,e,4.17094,162.38343,347.46388,2.4754097,0.25306579,0.0858962,18.31645,11/5/1990,1950.0,12.50,0.25
Ladoga,e,2.11506,21.98154,307.69164,2.8495737,0.20489635,0.0730885,274.86595,11/5/1990,1950.0,12.56,0.25
Laetitia,e,10.37426,156.72951,208.18597,2.7677280,0.21405184,0.1144777,237.59529,11/5/1990,1950.0,6.16,0.25
Lagerkvist,e,9.04391,340.02873,171.11324,2.7954909,0.21087104,0.1030098,225.33842,11/5/1990,1950.0,12.39,0.15
Lagrangea,e,11.02469,297.67164,80.07775,3.1695585,0.17466501,0.3398826,9.75802,11/5/1990,1950.0,11.64,0.15
Lagrula,e,4.71737,65.68756,13.44363,2.2145216,0.29907782,0.1125723,155.38770,11/5/1990,1950.0,12.50,0.25
Lahti,e,12.66570,264.78072,97.73606,3.0905198,0.18140814,0.2451428,191.36385,11/5/1990,1950.0,11.90,0.25
Lalage,e,0.71647,209.54885,246.60065,2.2552063,0.29102123,0.1551038,80.87529,11/5/1990,1950.0,12.18,0.15
Lamberta,e,10.58676,21.35345,195.51089,2.7327099,0.21817942,0.2355778,326.88396,11/5/1990,1950.0,8.16,0.13
Lambrecht,e,4.05064,188.23873,224.19547,2.4721097,0.25357268,0.0729705,95.97788,11/5/1990,1950.0,12.73,0.25
Lameia,e,4.04159,246.52705,10.84329,2.4716884,0.25363752,0.0639519,39.07412,11/5/1990,1950.0,10.14,0.15
Lampetia,e,14.88628,212.70014,89.44310,2.7759816,0.21309791,0.3324104,332.86370,11/5/1990,1950.0,8.40,0.15
